STARLINK-30871          
1 58228U 23170Y   26068.66614276  .00000035  00000+0  10800-4 0  9998
2 58228  43.0010 194.5306 0001850 276.5002  83.5639 15.27573938130298
FLOCK 4G-8              
1 62613U 25009E   26068.72381419  .00013559  00000+0  50438-3 0  9996
2 62613  97.4045 151.2834 0003050 315.2538  44.8455 15.27623414 63721
